NORAD_CAT_ID,OBJECT_NAME,OBJECT_TYPE,EPOCH,MEAN_MOTION,ECCENTRICITY,INCLINATION,RA_OF_ASC_NODE,ARG_OF_PERICENTER,MEAN_ANOMALY,BSTAR,MEAN_MOTION_DOT,MEAN_MOTION_DDOT,TLE_LINE0,TLE_LINE1,TLE_LINE2,SEMIMAJOR_AXIS,PERIOD,APOGEE,PERIGEE,DECAYED
52993.0,STARLINK-4264,PAYLOAD,2023-10-16 14:33:23,15.08842136,0.0001566,53.2194,62.5238,102.0982,258.0185,0.00020014,2.899e-05,0.0,0 STARLINK-4264,1 52993U 22076H   23289.60651975  .00002899  00000-0  20014-3 0  9996,2 52993  53.2194  62.5238 0001566 102.0982 258.0185 15.08842136 70734,6917.874,95.437,540.822,538.656,0.0
52993.0,STARLINK-4264,PAYLOAD,2023-10-16 16:08:46,15.08843875,0.0001531,53.2194,62.2266,102.0511,258.0653,0.00023362,3.432e-05,0.0,0 STARLINK-4264,1 52993U 22076H   23289.67275918  .00003432  00000-0  23362-3 0  9995,2 52993  53.2194  62.2266 0001531 102.0511 258.0653 15.08843875 71217,6917.869,95.437,540.793,538.674,0.0
52993.0,STARLINK-4264,PAYLOAD,2023-10-17 09:38:01,15.08837486,0.0001601,53.2195,58.9539,93.9087,266.2088,9.2878e-05,1.19e-05,0.0,0 STARLINK-4264,1 52993U 22076H   23290.40140351  .00001190  00000-0  92878-4 0  9998,2 52993  53.2195  58.9539 0001601  93.9087 266.2088 15.08837486 71323,6917.888,95.438,540.861,538.646,0.0
52993.0,STARLINK-4264,PAYLOAD,2023-10-18 01:31:52,15.08843273,0.0001666,53.219,55.9788,81.7798,278.3383,0.00016355,2.316e-05,0.0,0 STARLINK-4264,1 52993U 22076H   23291.06380201  .00002316  00000-0  16355-3 0  9997,2 52993  53.2190  55.9788 0001666  81.7798 278.3383 15.08843273 70957,6917.87,95.437,540.888,538.583,0.0
52993.0,STARLINK-4264,PAYLOAD,2023-10-19 01:22:39,15.08845678,0.0001373,53.2175,51.5212,88.9111,271.2038,0.0001103,1.468e-05,0.0,0 STARLINK-4264,1 52993U 22076H   23292.05739976  .00001468  00000-0  11030-3 0  9996,2 52993  53.2175  51.5212 0001373  88.9111 271.2038 15.08845678 71576,6917.863,95.437,540.678,538.778,0.0
52993.0,STARLINK-4264,PAYLOAD,2023-10-19 12:30:20,15.08852906,0.000119,53.2176,49.4401,86.4066,273.7063,0.00015926,2.249e-05,0.0,0 STARLINK-4264,1 52993U 22076H   23292.52107563  .00002249  00000-0  15926-3 0  9995,2 52993  53.2176  49.4401 0001190  86.4066 273.7063 15.08852906 71175,6917.841,95.437,540.529,538.883,0.0
52993.0,STARLINK-4264,PAYLOAD,2023-10-19 17:16:30,15.08860347,0.0001898,53.2196,48.5445,85.9383,274.1827,0.00030364,4.55e-05,0.0,0 STARLINK-4264,1 52993U 22076H   23292.71979236  .00004550  00000-0  30364-3 0  9990,2 52993  53.2196  48.5445 0001898  85.9383 274.1827 15.08860347 71672,6917.818,95.436,540.996,538.37,0.0
52993.0,STARLINK-4264,PAYLOAD,2023-10-20 01:13:26,15.08844144,0.0001276,53.2187,47.0586,94.3623,265.7515,5.054e-05,5.17e-06,0.0,0 STARLINK-4264,1 52993U 22076H   23293.05099654  .00000517  00000-0  50540-4 0  9993,2 52993  53.2187  47.0586 0001276  94.3623 265.7515 15.08844144 71726,6917.868,95.437,540.615,538.85,0.0
52993.0,STARLINK-4264,PAYLOAD,2023-10-20 12:21:08,15.088352,0.0001987,53.2196,44.9769,92.6982,267.4238,-4.0591e-06,-3.53e-06,0.0,0 STARLINK-4264,1 52993U 22076H   23293.51468532 -.00000353  00000-0 -40591-5 0  9995,2 52993  53.2196  44.9769 0001987  92.6982 267.4238 15.08835200 71794,6917.895,95.438,541.135,538.385,0.0
52993.0,STARLINK-4264,PAYLOAD,2023-10-21 12:11:55,15.08843855,0.0001606,53.2177,40.5173,85.8501,274.2674,0.00019796,2.864e-05,0.0,0 STARLINK-4264,1 52993U 22076H   23294.50828439  .00002864  00000-0  19796-3 0  9999,2 52993  53.2177  40.5173 0001606  85.8501 274.2674 15.08843855 71473,6917.869,95.437,540.845,538.623,0.0
52993.0,STARLINK-4264,PAYLOAD,2023-10-21 16:58:04,15.08852904,0.0001609,53.2176,39.6226,97.6077,262.5098,0.0003515,5.312e-05,0.0,0 STARLINK-4264,1 52993U 22076H   23294.70699913  .00005312  00000-0  35150-3 0  9997,2 52993  53.2176  39.6226 0001609  97.6077 262.5098 15.08852904 71972,6917.841,95.437,540.819,538.593,0.0
52993.0,STARLINK-4264,PAYLOAD,2023-10-22 12:02:43,15.08832071,0.0001514,53.2173,36.0566,99.6726,260.4437,5.1904e-05,5.38e-06,0.0,0 STARLINK-4264,1 52993U 22076H   23295.50189119  .00000538  00000-0  51904-4 0  9999,2 52993  53.2173  36.0566 0001514  99.6726 260.4437 15.08832071 72096,6917.905,95.438,540.817,538.722,0.0
52993.0,STARLINK-4264,PAYLOAD,2023-10-22 13:38:06,15.08833824,0.0001498,53.2174,35.7591,98.711,261.4052,9.5708e-05,1.235e-05,0.0,0 STARLINK-4264,1 52993U 22076H   23295.56813107  .00001235  00000-0  95708-4 0  9991,2 52993  53.2174  35.7591 0001498  98.7110 261.4052 15.08833824 71639,6917.899,95.438,540.801,538.728,0.0
52993.0,STARLINK-4264,PAYLOAD,2023-10-23 11:53:30,15.08839437,0.0001391,53.2182,31.5957,96.0381,264.077,0.00034504,5.208e-05,0.0,0 STARLINK-4264,1 52993U 22076H   23296.49549327  .00005208  00000-0  34504-3 0  9994,2 52993  53.2182  31.5957 0001391  96.0381 264.0770 15.08839437 71778,6917.882,95.438,540.709,538.785,0.0
52993.0,STARLINK-4264,PAYLOAD,2023-10-24 05:22:45,15.08842113,0.0001428,53.2177,28.3263,97.9122,262.2033,0.0002269,3.325e-05,0.0,0 STARLINK-4264,1 52993U 22076H   23297.22413279  .00003325  00000-0  22690-3 0  9993,2 52993  53.2177  28.3263 0001428  97.9122 262.2033 15.08842113 72352,6917.874,95.437,540.727,538.751,0.0
52993.0,STARLINK-4264,PAYLOAD,2023-10-24 11:44:17,15.08843024,0.0001405,53.2179,27.1369,97.7907,262.3244,0.00018361,2.636e-05,0.0,0 STARLINK-4264,1 52993U 22076H   23297.48909206  .00002636  00000-0  18361-3 0  9995,2 52993  53.2179  27.1369 0001405  97.7907 262.3244 15.08843024 71921,6917.871,95.437,540.708,538.764,0.0
52993.0,STARLINK-4264,PAYLOAD,2023-10-25 13:10:27,15.08843548,0.0001467,53.2197,22.3801,95.3299,264.7861,0.00010697,1.415e-05,0.0,0 STARLINK-4264,1 52993U 22076H   23298.54893107  .00001415  00000-0  10697-3 0  9993,2 52993  53.2197  22.3801 0001467  95.3299 264.7861 15.08843548 72557,6917.87,95.437,540.749,538.72,0.0
52993.0,STARLINK-4264,PAYLOAD,2023-10-26 13:01:14,15.08856752,0.0001538,53.2183,17.9196,92.2151,267.9017,0.00034641,5.232e-05,0.0,0 STARLINK-4264,1 52993U 22076H   23299.54252404  .00005232  00000-0  34641-3 0  9999,2 52993  53.2183  17.9196 0001538  92.2151 267.9017 15.08856752 72235,6917.829,95.436,540.758,538.63,0.0
52993.0,STARLINK-4264,PAYLOAD,2023-10-26 19:22:46,15.08861376,0.0001552,53.2182,16.7302,89.8831,270.2339,0.00039553,6.016e-05,0.0,0 STARLINK-4264,1 52993U 22076H   23299.80748031  .00006016  00000-0  39553-3 0  9992,2 52993  53.2182  16.7302 0001552  89.8831 270.2339 15.08861376 72279,6917.815,95.436,540.754,538.606,0.0
52993.0,STARLINK-4264,PAYLOAD,2023-10-26 22:33:33,15.08842279,0.0001527,53.2202,16.1362,81.4602,278.6563,3.0342e-06,-2.4e-06,0.0,0 STARLINK-4264,1 52993U 22076H   23299.93996695 -.00000240  00000-0  30342-5 0  9990,2 52993  53.2202  16.1362 0001527  81.4602 278.6563 15.08842279 72764,6917.873,95.437,540.795,538.682,0.0
52993.0,STARLINK-4264,PAYLOAD,2023-10-27 11:16:37,15.08858055,0.0001395,53.2174,13.7554,79.8746,280.2403,0.00037913,5.754e-05,0.0,0 STARLINK-4264,1 52993U 22076H   23300.46987972  .00005754  00000-0  37913-3 0  9992,2 52993  53.2174  13.7554 0001395  79.8746 280.2403 15.08858055 72841,6917.825,95.436,540.655,538.725,0.0
52993.0,STARLINK-4264,PAYLOAD,2023-10-27 22:24:19,15.08838299,0.0001721,53.218,11.6759,78.02,282.0985,-9.8772e-06,-4.45e-06,0.0,0 STARLINK-4264,1 52993U 22076H   23300.93356394 -.00000445  00000-0 -98772-5 0  9998,2 52993  53.2180  11.6759 0001721  78.0200 282.0985 15.08838299 72440,6917.886,95.438,540.941,538.56,0.0
52993.0,STARLINK-4264,PAYLOAD,2023-10-28 11:07:25,15.08828437,0.0002102,53.2173,9.2958,94.2258,265.8975,-6.0731e-06,-3.85e-06,0.0,0 STARLINK-4264,1 52993U 22076H   23301.46349125 -.00000385  00000-0 -60731-5 0  9998,2 52993  53.2173   9.2958 0002102  94.2258 265.8975 15.08828437 72994,6917.916,95.438,541.235,538.327,0.0
52993.0,STARLINK-4264,PAYLOAD,2023-10-28 22:15:07,15.088333,0.0001807,53.2183,7.213,91.507,268.6129,0.00064655,0.00010015,0.0,0 STARLINK-4264,1 52993U 22076H   23301.92717573  .00010015  00000-0  64655-3 0  9991,2 52993  53.2183   7.2130 0001807  91.5070 268.6129 15.08833300 72591,6917.901,95.438,541.016,538.516,0.0
52993.0,STARLINK-4264,PAYLOAD,2023-10-29 10:58:12,15.08865992,0.0001721,53.2176,4.8343,88.6074,271.5116,0.0014585,0.00023017,0.0,0 STARLINK-4264,1 52993U 22076H   23302.45708977  .00023017  00000-0  14585-2 0  9990,2 52993  53.2176   4.8343 0001721  88.6074 271.5116 15.08865992 73141,6917.801,95.436,540.856,538.475,0.0
52993.0,STARLINK-4264,PAYLOAD,2023-10-30 04:27:27,15.08852746,0.0001683,53.219,1.5632,111.9522,248.1649,0.0005463,8.42e-05,0.0,0 STARLINK-4264,1 52993U 22076H   23303.18573002  .00008420  00000-0  54630-3 0  9997,2 52993  53.2190   1.5632 0001683 111.9522 248.1649 15.08852746 73253,6917.841,95.437,540.871,538.542,0.0
52993.0,STARLINK-4264,PAYLOAD,2023-10-30 10:48:59,15.08838938,0.0001721,53.2185,0.3759,100.7293,259.3893,0.00018005,2.579e-05,0.0,0 STARLINK-4264,1 52993U 22076H   23303.45069230  .00002579  00000-0  18005-3 0  9995,2 52993  53.2185   0.3759 0001721 100.7293 259.3893 15.08838938 73294,6917.884,95.438,540.939,538.558,0.0
52993.0,STARLINK-4264,PAYLOAD,2023-10-31 02:42:51,15.08830076,0.0001699,53.2185,357.4035,103.1678,256.9504,0.00044196,6.751e-05,0.0,0 STARLINK-4264,1 52993U 22076H   23304.11310114  .00006751  00000-0  44196-3 0  9995,2 52993  53.2185 357.4035 0001699 103.1678 256.9504 15.08830076 73393,6917.911,95.438,540.951,538.6,0.0
52993.0,STARLINK-4264,PAYLOAD,2023-10-31 10:39:47,15.08838944,0.0001619,53.2181,355.9143,93.5262,266.5915,0.00025799,3.82e-05,0.0,0 STARLINK-4264,1 52993U 22076H   23304.44430026  .00003820  00000-0  25799-3 0  9998,2 52993  53.2181 355.9143 0001619  93.5262 266.5915 15.08838944 72973,6917.884,95.438,540.869,538.629,0.0
52993.0,STARLINK-4264,PAYLOAD,2023-10-31 20:12:06,15.08835808,0.0001638,53.2178,354.1304,91.4908,268.6272,0.00034771,5.249e-05,0.0,0 STARLINK-4264,1 52993U 22076H   23304.84174376  .00005249  00000-0  34771-3 0  9992,2 52993  53.2178 354.1304 0001638  91.4908 268.6272 15.08835808 73037,6917.893,95.438,540.891,538.625,0.0
